GLOBALSTAR M084         
1 38040U 11080A   23293.38138896 -.00000101  00000+0  13693-4 0  9998
2 38040  51.9993  92.7666 0001016 110.4841 257.6078 12.62267053546167
GLOBALSTAR M080         
1 38041U 11080B   23293.43629615 -.00000105  00000+0 -79035-5 0  9997
2 38041  52.0044  93.9930 0001239 106.9410 271.0164 12.62265687546294
GLOBALSTAR M082         
1 38042U 11080C   23293.55329580 -.00000102  00000+0  77349-5 0  9991
2 38042  52.0092  49.0175 0000207  43.6122  87.2632 12.62271605547017
GLOBALSTAR M092         
1 38043U 11080D   23293.76312559 -.00000085  00000+0  10250-3 0  9999
2 38043  52.0063 138.7252 0000910 108.1671  17.0954 12.62273437545702
GLOBALSTAR M090         
1 38044U 11080E   23293.48879977 -.00000099  00000+0  25750-4 0  9998
2 38044  51.9904  43.8020 0000530  83.3484 355.1644 12.62278214547126
GLOBALSTAR M086         
1 38045U 11080F   23293.51596109 -.00000107  00000+0 -18832-4 0  9990
2 38045  51.9918  44.2245 0001481  76.1851   5.0687 12.62263310547174
GLOBALSTAR M097         
1 39072U 13005A   23293.44553076 -.00000071  00000+0  18043-3 0  9990
2 39072  52.0056 318.3757 0000542  46.3907 313.7005 12.62271536494310
GLOBALSTAR M093         
1 39073U 13005B   23293.33981612 -.00000085  00000+0  10592-3 0  9996
2 39073  51.9816 312.9698 0000748  36.4782 323.6135 12.62267661494257
